<?xml version="1.0" encoding="UTF-8"?>
<ndm xmlns:xsi="http://www.w3.org/2001/XMLSchema-instance" xsi:noNamespaceSchemaLocation="https://sanaregistry.org/r/ndmxml_unqualified/ndmxml-2.0.0-master-2.0.xsd">
<omm id="CCSDS_OMM_VERS" version="2.0">
<header><CREATION_DATE/><ORIGINATOR/></header><body><segment><metadata><OBJECT_NAME>ORBCOMM FM05</OBJECT_NAME><OBJECT_ID>1997-084F</OBJECT_ID><CENTER_NAME>EARTH</CENTER_NAME><REF_FRAME>TEME</REF_FRAME><TIME_SYSTEM>UTC</TIME_SYSTEM><MEAN_ELEMENT_THEORY>SGP4</MEAN_ELEMENT_THEORY></metadata><data><meanElements><EPOCH>2026-01-22T10:49:18.922080</EPOCH><MEAN_MOTION>14.46888553</MEAN_MOTION><ECCENTRICITY>.00043259</ECCENTRICITY><INCLINATION>45.0146</INCLINATION><RA_OF_ASC_NODE>34.5818</RA_OF_ASC_NODE><ARG_OF_PERICENTER>264.0902</ARG_OF_PERICENTER><MEAN_ANOMALY>95.9457</MEAN_ANOMALY></meanElements><tleParameters><EPHEMERIS_TYPE>0</EPHEMERIS_TYPE><CLASSIFICATION_TYPE>U</CLASSIFICATION_TYPE><NORAD_CAT_ID>25117</NORAD_CAT_ID><ELEMENT_SET_NO>999</ELEMENT_SET_NO><REV_AT_EPOCH>47235</REV_AT_EPOCH><BSTAR>.86719917E-3</BSTAR><MEAN_MOTION_DOT>.3034E-4</MEAN_MOTION_DOT><MEAN_MOTION_DDOT>0</MEAN_MOTION_DDOT></tleParameters></data></segment></body></omm>
<omm id="CCSDS_OMM_VERS" version="2.0">
<header><CREATION_DATE/><ORIGINATOR/></header><body><segment><metadata><OBJECT_NAME>ORBCOMM FM06</OBJECT_NAME><OBJECT_ID>1997-084G</OBJECT_ID><CENTER_NAME>EARTH</CENTER_NAME><REF_FRAME>TEME</REF_FRAME><TIME_SYSTEM>UTC</TIME_SYSTEM><MEAN_ELEMENT_THEORY>SGP4</MEAN_ELEMENT_THEORY></metadata><data><meanElements><EPOCH>2026-01-22T06:50:14.152992</EPOCH><MEAN_MOTION>14.47056618</MEAN_MOTION><ECCENTRICITY>.0003287</ECCENTRICITY><INCLINATION>45.0138</INCLINATION><RA_OF_ASC_NODE>34.8501</RA_OF_ASC_NODE><ARG_OF_PERICENTER>268.9911</ARG_OF_PERICENTER><MEAN_ANOMALY>105.7842</MEAN_ANOMALY></meanElements><tleParameters><EPHEMERIS_TYPE>0</EPHEMERIS_TYPE><CLASSIFICATION_TYPE>U</CLASSIFICATION_TYPE><NORAD_CAT_ID>25118</NORAD_CAT_ID><ELEMENT_SET_NO>999</ELEMENT_SET_NO><REV_AT_EPOCH>47325</REV_AT_EPOCH><BSTAR>.1026E-2</BSTAR><MEAN_MOTION_DOT>.3629E-4</MEAN_MOTION_DOT><MEAN_MOTION_DDOT>0</MEAN_MOTION_DDOT></tleParameters></data></segment></body></omm>
<omm id="CCSDS_OMM_VERS" version="2.0">
<header><CREATION_DATE/><ORIGINATOR/></header><body><segment><metadata><OBJECT_NAME>ORBCOMM FM07</OBJECT_NAME><OBJECT_ID>1997-084H</OBJECT_ID><CENTER_NAME>EARTH</CENTER_NAME><REF_FRAME>TEME</REF_FRAME><TIME_SYSTEM>UTC</TIME_SYSTEM><MEAN_ELEMENT_THEORY>SGP4</MEAN_ELEMENT_THEORY></metadata><data><meanElements><EPOCH>2026-01-22T10:22:13.192896</EPOCH><MEAN_MOTION>14.47065056</MEAN_MOTION><ECCENTRICITY>.0005028</ECCENTRICITY><INCLINATION>45.0133</INCLINATION><RA_OF_ASC_NODE>34.8857</RA_OF_ASC_NODE><ARG_OF_PERICENTER>258.6878</ARG_OF_PERICENTER><MEAN_ANOMALY>101.3409</MEAN_ANOMALY></meanElements><tleParameters><EPHEMERIS_TYPE>0</EPHEMERIS_TYPE><CLASSIFICATION_TYPE>U</CLASSIFICATION_TYPE><NORAD_CAT_ID>25119</NORAD_CAT_ID><ELEMENT_SET_NO>999</ELEMENT_SET_NO><REV_AT_EPOCH>47326</REV_AT_EPOCH><BSTAR>.85970165E-3</BSTAR><MEAN_MOTION_DOT>.3018E-4</MEAN_MOTION_DOT><MEAN_MOTION_DDOT>0</MEAN_MOTION_DDOT></tleParameters></data></segment></body></omm>
<omm id="CCSDS_OMM_VERS" version="2.0">
<header><CREATION_DATE/><ORIGINATOR/></header><body><segment><metadata><OBJECT_NAME>ORBCOMM FM03</OBJECT_NAME><OBJECT_ID>1998-007B</OBJECT_ID><CENTER_NAME>EARTH</CENTER_NAME><REF_FRAME>TEME</REF_FRAME><TIME_SYSTEM>UTC</TIME_SYSTEM><MEAN_ELEMENT_THEORY>SGP4</MEAN_ELEMENT_THEORY></metadata><data><meanElements><EPOCH>2026-01-22T11:09:07.320384</EPOCH><MEAN_MOTION>14.35172231</MEAN_MOTION><ECCENTRICITY>.00460384</ECCENTRICITY><INCLINATION>107.9645</INCLINATION><RA_OF_ASC_NODE>226.2390</RA_OF_ASC_NODE><ARG_OF_PERICENTER>226.9068</ARG_OF_PERICENTER><MEAN_ANOMALY>132.8215</MEAN_ANOMALY></meanElements><tleParameters><EPHEMERIS_TYPE>0</EPHEMERIS_TYPE><CLASSIFICATION_TYPE>U</CLASSIFICATION_TYPE><NORAD_CAT_ID>25158</NORAD_CAT_ID><ELEMENT_SET_NO>999</ELEMENT_SET_NO><REV_AT_EPOCH>45549</REV_AT_EPOCH><BSTAR>.9215304E-3</BSTAR><MEAN_MOTION_DOT>.2538E-4</MEAN_MOTION_DOT><MEAN_MOTION_DDOT>0</MEAN_MOTION_DDOT></tleParameters></data></segment></body></omm>
<omm id="CCSDS_OMM_VERS" version="2.0">
<header><CREATION_DATE/><ORIGINATOR/></header><body><segment><metadata><OBJECT_NAME>ORBCOMM FM04</OBJECT_NAME><OBJECT_ID>1998-007C</OBJECT_ID><CENTER_NAME>EARTH</CENTER_NAME><REF_FRAME>TEME</REF_FRAME><TIME_SYSTEM>UTC</TIME_SYSTEM><MEAN_ELEMENT_THEORY>SGP4</MEAN_ELEMENT_THEORY></metadata><data><meanElements><EPOCH>2026-01-22T13:13:16.073472</EPOCH><MEAN_MOTION>14.35408098</MEAN_MOTION><ECCENTRICITY>.00417405</ECCENTRICITY><INCLINATION>107.9635</INCLINATION><RA_OF_ASC_NODE>229.7869</RA_OF_ASC_NODE><ARG_OF_PERICENTER>224.2988</ARG_OF_PERICENTER><MEAN_ANOMALY>135.4809</MEAN_ANOMALY></meanElements><tleParameters><EPHEMERIS_TYPE>0</EPHEMERIS_TYPE><CLASSIFICATION_TYPE>U</CLASSIFICATION_TYPE><NORAD_CAT_ID>25159</NORAD_CAT_ID><ELEMENT_SET_NO>999</ELEMENT_SET_NO><REV_AT_EPOCH>45569</REV_AT_EPOCH><BSTAR>.83529813E-3</BSTAR><MEAN_MOTION_DOT>.2294E-4</MEAN_MOTION_DOT><MEAN_MOTION_DDOT>0</MEAN_MOTION_DDOT></tleParameters></data></segment></body></omm>
<omm id="CCSDS_OMM_VERS" version="2.0">
<header><CREATION_DATE/><ORIGINATOR/></header><body><segment><metadata><OBJECT_NAME>ORBCOMM FM17</OBJECT_NAME><OBJECT_ID>1998-046A</OBJECT_ID><CENTER_NAME>EARTH</CENTER_NAME><REF_FRAME>TEME</REF_FRAME><TIME_SYSTEM>UTC</TIME_SYSTEM><MEAN_ELEMENT_THEORY>SGP4</MEAN_ELEMENT_THEORY></metadata><data><meanElements><EPOCH>2026-01-22T22:12:24.835680</EPOCH><MEAN_MOTION>14.35640972</MEAN_MOTION><ECCENTRICITY>.00027178</ECCENTRICITY><INCLINATION>44.9951</INCLINATION><RA_OF_ASC_NODE>300.1469</RA_OF_ASC_NODE><ARG_OF_PERICENTER>266.9422</ARG_OF_PERICENTER><MEAN_ANOMALY>93.1115</MEAN_ANOMALY></meanElements><tleParameters><EPHEMERIS_TYPE>0</EPHEMERIS_TYPE><CLASSIFICATION_TYPE>U</CLASSIFICATION_TYPE><NORAD_CAT_ID>25413</NORAD_CAT_ID><ELEMENT_SET_NO>999</ELEMENT_SET_NO><REV_AT_EPOCH>43474</REV_AT_EPOCH><BSTAR>.63435242E-3</BSTAR><MEAN_MOTION_DOT>.1706E-4</MEAN_MOTION_DOT><MEAN_MOTION_DDOT>0</MEAN_MOTION_DDOT></tleParameters></data></segment></body></omm>
<omm id="CCSDS_OMM_VERS" version="2.0">
<header><CREATION_DATE/><ORIGINATOR/></header><body><segment><metadata><OBJECT_NAME>ORBCOMM FM18</OBJECT_NAME><OBJECT_ID>1998-046B</OBJECT_ID><CENTER_NAME>EARTH</CENTER_NAME><REF_FRAME>TEME</REF_FRAME><TIME_SYSTEM>UTC</TIME_SYSTEM><MEAN_ELEMENT_THEORY>SGP4</MEAN_ELEMENT_THEORY></metadata><data><meanElements><EPOCH>2026-01-22T13:02:34.384992</EPOCH><MEAN_MOTION>14.39291907</MEAN_MOTION><ECCENTRICITY>.00038929</ECCENTRICITY><INCLINATION>44.9905</INCLINATION><RA_OF_ASC_NODE>213.3423</RA_OF_ASC_NODE><ARG_OF_PERICENTER>309.2953</ARG_OF_PERICENTER><MEAN_ANOMALY>50.7550</MEAN_ANOMALY></meanElements><tleParameters><EPHEMERIS_TYPE>0</EPHEMERIS_TYPE><CLASSIFICATION_TYPE>U</CLASSIFICATION_TYPE><NORAD_CAT_ID>25414</NORAD_CAT_ID><ELEMENT_SET_NO>999</ELEMENT_SET_NO><REV_AT_EPOCH>43584</REV_AT_EPOCH><BSTAR>.8388919E-3</BSTAR><MEAN_MOTION_DOT>.2487E-4</MEAN_MOTION_DOT><MEAN_MOTION_DDOT>0</MEAN_MOTION_DDOT></tleParameters></data></segment></body></omm>
<omm id="CCSDS_OMM_VERS" version="2.0">
<header><CREATION_DATE/><ORIGINATOR/></header><body><segment><metadata><OBJECT_NAME>ORBCOMM FM19</OBJECT_NAME><OBJECT_ID>1998-046C</OBJECT_ID><CENTER_NAME>EARTH</CENTER_NAME><REF_FRAME>TEME</REF_FRAME><TIME_SYSTEM>UTC</TIME_SYSTEM><MEAN_ELEMENT_THEORY>SGP4</MEAN_ELEMENT_THEORY></metadata><data><meanElements><EPOCH>2026-01-22T21:25:18.976800</EPOCH><MEAN_MOTION>14.39116737</MEAN_MOTION><ECCENTRICITY>.00026513</ECCENTRICITY><INCLINATION>44.9915</INCLINATION><RA_OF_ASC_NODE>214.0166</RA_OF_ASC_NODE><ARG_OF_PERICENTER>303.2450</ARG_OF_PERICENTER><MEAN_ANOMALY>196.6121</MEAN_ANOMALY></meanElements><tleParameters><EPHEMERIS_TYPE>0</EPHEMERIS_TYPE><CLASSIFICATION_TYPE>U</CLASSIFICATION_TYPE><NORAD_CAT_ID>25415</NORAD_CAT_ID><ELEMENT_SET_NO>999</ELEMENT_SET_NO><REV_AT_EPOCH>43584</REV_AT_EPOCH><BSTAR>.74918549E-3</BSTAR><MEAN_MOTION_DOT>.2197E-4</MEAN_MOTION_DOT><MEAN_MOTION_DDOT>0</MEAN_MOTION_DDOT></tleParameters></data></segment></body></omm>

</ndm>
