ORBCOMM FM05            
1 25117U 97084F   26022.45091345  .00003034  00000+0  86720-3 0  9992
2 25117  45.0146  34.5818 0004325 264.0902  95.9457 14.46888553472356
ORBCOMM FM06            
1 25118U 97084G   26022.28488603  .00003629  00000+0  10260-2 0  9996
2 25118  45.0138  34.8501 0003287 268.9911 105.7842 14.47056618473257
ORBCOMM FM07            
1 25119U 97084H   26022.43209714  .00003018  00000+0  85970-3 0  9991
2 25119  45.0133  34.8857 0005028 258.6878 101.3409 14.47065056473268
ORBCOMM FM03            
1 25158U 98007B   26022.46466806  .00002538  00000+0  92153-3 0  9997
2 25158 107.9645 226.2390 0046038 226.9068 132.8215 14.35172231455491
ORBCOMM FM04            
1 25159U 98007C   26022.55088048  .00002294  00000+0  83530-3 0  9994
2 25159 107.9635 229.7869 0041740 224.2988 135.4809 14.35408098455690
ORBCOMM FM17            
1 25413U 98046A   26022.92528745  .00001706  00000+0  63435-3 0  9993
2 25413  44.9951 300.1469 0002717 266.9422  93.1115 14.35640972434743
ORBCOMM FM18            
1 25414U 98046B   26022.54345353  .00002487  00000+0  83889-3 0  9996
2 25414  44.9905 213.3423 0003892 309.2953  50.7550 14.39291907435841
ORBCOMM FM19            
1 25415U 98046C   26022.89258075  .00002197  00000+0  74919-3 0  9991
2 25415  44.9915 214.0166 0002651 303.2450 196.6121 14.39116737435844
